{
  "links" : {
    "next" : "https://api.nasa.gov/neo/rest/v1/neo/browse?page=10&size=20&api_key=jqAGvNAwUIBu4fl9FSOjdm3V4F7hIglRzI6pdX9d",
    "prev" : "https://api.nasa.gov/neo/rest/v1/neo/browse?page=8&size=20&api_key=jqAGvNAwUIBu4fl9FSOjdm3V4F7hIglRzI6pdX9d",
    "self" : "https://api.nasa.gov/neo/rest/v1/neo/browse?page=9&size=20&api_key=jqAGvNAwUIBu4fl9FSOjdm3V4F7hIglRzI6pdX9d"
  },
  "page" : {
    "size" : 20,
    "total_elements" : 20750,
    "total_pages" : 1038,
    "number" : 9
  },
  "near_earth_objects" : [ {
    "links" : {
      "self" : "https://api.nasa.gov/neo/rest/v1/neo/3137721?api_key=jqAGvNAwUIBu4fl9FSOjdm3V4F7hIglRzI6pdX9d"
    },
    "neo_reference_id" : "3137721",
    "name" : "(2002 SQ41)",
    "designation" : "2002 SQ41",
    "nasa_jpl_url" : "http://ssd.jpl.nasa.gov/sbdb.cgi?sstr=3137721",
    "absolute_magnitude_h" : 20.1,
    "estimated_diameter" : {
      "kilometers" : {
        "estimated_diameter_min" : 0.2538370294,
        "estimated_diameter_max" : 0.5675968529
      },
      "meters" : {
        "estimated_diameter_min" : 253.8370293645,
        "estimated_diameter_max" : 567.5968528656
      },
      "miles" : {
        "estimated_diameter_min" : 0.1577269688,
        "estimated_diameter_max" : 0.3526882241
      },
      "feet" : {
        "estimated_diameter_min" : 832.7986794202,
        "estimated_diameter_max" : 1862.1944587557
      }
    },
    "is_potentially_hazardous_asteroid" : true,
    "close_approach_data" : [ {
      "close_approach_date" : "1998-10-19",
      "epoch_date_close_approach" : 908780400000,
      "relative_velocity" : {
        "kilometers_per_second" : "33.1732722192",
        "kilometers_per_hour" : "119423.779989003",
        "miles_per_hour" : "74205.2926270558"
      },
      "miss_distance" : {
        "astronomical" : "0.1339199436",
        "lunar" : "52.0948562622",
        "kilometers" : "20034138",
        "miles" : "12448636"
      },
      "orbiting_body" : "Venus"
    }, {
      "close_approach_date" : "2002-10-20",
      "epoch_date_close_approach" : 1035097200000,
      "relative_velocity" : {
        "kilometers_per_second" : "25.2609271121",
        "kilometers_per_hour" : "90939.3376036215",
        "miles_per_hour" : "56506.1678570947"
      },
      "miss_distance" : {
        "astronomical" : "0.0820271368",
        "lunar" : "31.9085559845",
        "kilometers" : "12271085",
        "miles" : "7624899"
      },
      "orbiting_body" : "Earth"
    }, {
      "close_approach_date" : "2082-10-14",
      "epoch_date_close_approach" : 3559186800000,
      "relative_velocity" : {
        "kilometers_per_second" : "28.0134765641",
        "kilometers_per_hour" : "100848.5156306847",
        "miles_per_hour" : "62663.3457261885"
      },
      "miss_distance" : {
        "astronomical" : "0.0525338505",
        "lunar" : "20.435667038",
        "kilometers" : "7858952",
        "miles" : "4883326.5"
      },
      "orbiting_body" : "Earth"
    } ],
    "orbital_data" : {
      "orbit_id" : "17",
      "orbit_determination_date" : "2017-04-06 09:14:48",
      "first_observation_date" : "2002-09-29",
      "last_observation_date" : "2002-10-21",
      "data_arc_in_days" : 22,
      "observations_used" : 82,
      "orbit_uncertainty" : "7",
      "minimum_orbit_intersection" : ".0100253",
      "jupiter_tisserand_invariant" : "2.765",
      "epoch_osculation" : "2458600.5",
      "eccentricity" : ".7999846882718674",
      "semi_major_axis" : "2.606533498684528",
      "inclination" : "25.12802198964784",
      "ascending_node_longitude" : "21.93462643709339",
      "orbital_period" : "1537.069103822934",
      "perihelion_distance" : ".5213466102692059",
      "perihelion_argument" : "95.71697863701836",
      "aphelion_distance" : "4.69172038709985",
      "perihelion_time" : "2458754.107817647353",
      "mean_anomaly" : "324.0232087057699",
      "mean_motion" : ".2342119811689813",
      "equinox" : "J2000",
      "orbit_class" : {
        "orbit_class_type" : "APO",
        "orbit_class_range" : "a (semi-major axis) > 1.0 AU; q (perihelion) < 1.017 AU",
        "orbit_class_description" : "Near-Earth asteroid orbits which cross the Earth’s orbit similar to that of 1862 Apollo"
      }
    },
    "is_sentry_object" : false
  }, {
    "links" : {
      "self" : "https://api.nasa.gov/neo/rest/v1/neo/3137732?api_key=jqAGvNAwUIBu4fl9FSOjdm3V4F7hIglRzI6pdX9d"
    },
    "neo_reference_id" : "3137732",
    "name" : "(2002 TA58)",
    "designation" : "2002 TA58",
    "nasa_jpl_url" : "http://ssd.jpl.nasa.gov/sbdb.cgi?sstr=3137732",
    "absolute_magnitude_h" : 26.8,
    "estimated_diameter" : {
      "kilometers" : {
        "estimated_diameter_min" : 0.0116025908,
        "estimated_diameter_max" : 0.0259441818
      },
      "meters" : {
        "estimated_diameter_min" : 11.6025908209,
        "estimated_diameter_max" : 25.9441817907
      },
      "miles" : {
        "estimated_diameter_min" : 0.0072095135,
        "estimated_diameter_max" : 0.0161209622
      },
      "feet" : {
        "estimated_diameter_min" : 38.066244069,
        "estimated_diameter_max" : 85.1187093863
      }
    },
    "is_potentially_hazardous_asteroid" : false,
    "close_approach_data" : [ {
      "close_approach_date" : "2002-10-07",
      "epoch_date_close_approach" : 1033974000000,
      "relative_velocity" : {
        "kilometers_per_second" : "10.9498179026",
        "kilometers_per_hour" : "39419.3444491868",
        "miles_per_hour" : "24493.6476662183"
      },
      "miss_distance" : {
        "astronomical" : "0.0144237715",
        "lunar" : "5.6108469963",
        "kilometers" : "2157765.5",
        "miles" : "1340773.375"
      },
      "orbiting_body" : "Earth"
    } ],
    "orbital_data" : {
      "orbit_id" : "8",
      "orbit_determination_date" : "2017-04-06 09:14:48",
      "first_observation_date" : "2002-10-03",
      "last_observation_date" : "2002-10-07",
      "data_arc_in_days" : 4,
      "observations_used" : 49,
      "orbit_uncertainty" : "8",
      "minimum_orbit_intersection" : ".00233528",
      "jupiter_tisserand_invariant" : "3.156",
      "epoch_osculation" : "2452552.5",
      "eccentricity" : ".6269643150315808",
      "semi_major_axis" : "2.508303036819399",
      "inclination" : "1.691001084734485",
      "ascending_node_longitude" : "192.0917695818271",
      "orbital_period" : "1451.003409100398",
      "perihelion_distance" : ".9356865414482907",
      "perihelion_argument" : "217.8454587986535",
      "aphelion_distance" : "4.080919532190508",
      "perihelion_time" : "2452581.626490895382",
      "mean_anomaly" : "352.7735960807711",
      "mean_motion" : ".248104172424512",
      "equinox" : "J2000",
      "orbit_class" : {
        "orbit_class_type" : "APO",
        "orbit_class_range" : "a (semi-major axis) > 1.0 AU; q (perihelion) < 1.017 AU",
        "orbit_class_description" : "Near-Earth asteroid orbits which cross the Earth’s orbit similar to that of 1862 Apollo"
      }
    },
    "is_sentry_object" : false
  } ]
}